NORAD_CAT_ID,OBJECT_NAME,OBJECT_TYPE,EPOCH,MEAN_MOTION,ECCENTRICITY,INCLINATION,RA_OF_ASC_NODE,ARG_OF_PERICENTER,MEAN_ANOMALY,BSTAR,MEAN_MOTION_DOT,MEAN_MOTION_DDOT,TLE_LINE0,TLE_LINE1,TLE_LINE2,SEMIMAJOR_AXIS,PERIOD,APOGEE,PERIGEE,DECAYED
51736.0,STARLINK-3447,PAYLOAD,2023-12-26 04:01:05,15.088387,0.0001726,53.2188,330.8528,86.506,273.6129,-5.1664e-05,-1.11e-05,0.0,0 STARLINK-3447,1 51736U 22016Y   23360.16742803 -.00001110  00000-0 -51664-4 0  9999,2 51736  53.2188 330.8528 0001726  86.5060 273.6129 15.08838700103230,6917.884,95.438,540.943,538.555,0.0
51736.0,STARLINK-3447,PAYLOAD,2023-12-26 07:11:51,15.0884752,0.0001674,53.2186,330.2537,103.2332,256.8847,0.00010147,1.328e-05,0.0,0 STARLINK-3447,1 51736U 22016Y   23360.29990310  .00001328  00000-0  10147-3 0  9990,2 51736  53.2186 330.2537 0001674 103.2332 256.8847 15.08847520103255,6917.857,95.437,540.88,538.564,0.0
51736.0,STARLINK-3447,PAYLOAD,2023-12-27 03:51:52,15.08842065,0.0002052,53.2189,326.3899,109.666,250.4554,5.4272e-05,5.76e-06,0.0,0 STARLINK-3447,1 51736U 22016Y   23361.16102694  .00000576  00000-0  54272-4 0  9999,2 51736  53.2189 326.3899 0002052 109.6660 250.4554 15.08842065103388,6917.874,95.437,541.159,538.32,0.0
51736.0,STARLINK-3447,PAYLOAD,2023-12-27 05:27:16,15.08840527,0.0001962,53.2186,326.0924,72.1097,288.0109,6.3371e-05,7.21e-06,0.0,0 STARLINK-3447,1 51736U 22016Y   23361.22727071  .00000721  00000-0  63371-4 0  9990,2 51736  53.2186 326.0924 0001962  72.1097 288.0109 15.08840527102268,6917.879,95.438,541.101,538.386,0.0
51736.0,STARLINK-3447,PAYLOAD,2023-12-27 21:21:07,15.08842629,0.000192,53.2178,323.123,79.4806,280.6402,0.00011042,1.47e-05,0.0,0 STARLINK-3447,1 51736U 22016Y   23361.88967238  .00001470  00000-0  11042-3 0  9992,2 51736  53.2178 323.1230 0001920  79.4806 280.6402 15.08842629102369,6917.872,95.437,541.066,538.409,0.0
51736.0,STARLINK-3447,PAYLOAD,2023-12-28 03:42:40,15.08839806,0.0001834,53.2187,321.9313,81.5506,278.5694,7.6211e-05,9.25e-06,0.0,0 STARLINK-3447,1 51736U 22016Y   23362.15463395  .00000925  00000-0  76211-4 0  9992,2 51736  53.2187 321.9313 0001834  81.5506 278.5694 15.08839806103534,6917.881,95.438,541.015,538.477,0.0
51736.0,STARLINK-3447,PAYLOAD,2023-12-28 06:53:26,15.08846523,0.0001606,53.2181,321.334,98.7207,261.3968,0.00015789,2.226e-05,0.0,0 STARLINK-3447,1 51736U 22016Y   23362.28710972  .00002226  00000-0  15789-3 0  9990,2 51736  53.2181 321.3340 0001606  98.7207 261.3968 15.08846523102422,6917.86,95.437,540.836,538.614,0.0
51736.0,STARLINK-3447,PAYLOAD,2023-12-29 03:33:27,15.08839488,0.0001861,53.2179,317.4702,78.5554,281.5647,7.8322e-05,9.59e-06,0.0,0 STARLINK-3447,1 51736U 22016Y   23363.14823573  .00000959  00000-0  78322-4 0  9992,2 51736  53.2179 317.4702 0001861  78.5554 281.5647 15.08839488103680,6917.882,95.438,541.034,538.46,0.0
51736.0,STARLINK-3447,PAYLOAD,2023-12-29 06:44:13,15.08843232,0.0001874,53.2201,316.867,77.3371,282.783,0.00011312,1.513e-05,0.0,0 STARLINK-3447,1 51736U 22016Y   23363.28071290  .00001513  00000-0  11312-3 0  9990,2 51736  53.2201 316.8670 0001874  77.3371 282.7830 15.08843232102577,6917.871,95.437,541.032,538.439,0.0
51736.0,STARLINK-3447,PAYLOAD,2023-12-30 03:24:13,15.08849712,0.0001678,53.2183,313.0031,105.2233,254.8945,0.00015292,2.147e-05,0.0,0 STARLINK-3447,1 51736U 22016Y   23364.14182770  .00002147  00000-0  15292-3 0  9997,2 51736  53.2183 313.0031 0001678 105.2233 254.8945 15.08849712103832,6917.851,95.437,540.877,538.555,0.0
51736.0,STARLINK-3447,PAYLOAD,2023-12-30 06:35:00,15.08851719,0.0001865,53.2193,312.4095,115.3998,244.7187,0.0001517,2.128e-05,0.0,0 STARLINK-3447,1 51736U 22016Y   23364.27430561  .00002128  00000-0  15170-3 0  9999,2 51736  53.2193 312.4095 0001865 115.3998 244.7187 15.08851719102727,6917.845,95.437,541.0,538.419,0.0
51736.0,STARLINK-3447,PAYLOAD,2023-12-31 03:15:01,15.08841517,0.0001462,53.2183,308.5403,102.9872,257.1283,-3.3619e-05,-8.23e-06,0.0,0 STARLINK-3447,1 51736U 22016Y   23365.13543054 -.00000823  00000-0 -33619-4 0  9998,2 51736  53.2183 308.5403 0001462 102.9872 257.1283 15.08841517103980,6917.876,95.437,540.752,538.729,0.0
51736.0,STARLINK-3447,PAYLOAD,2023-12-31 19:08:52,15.08836731,0.0001545,53.2179,305.5736,109.7767,250.3392,7.2171e-06,-1.73e-06,0.0,0 STARLINK-3447,1 51736U 22016Y   23365.79783430 -.00000173  00000-0  72171-5 0  9998,2 51736  53.2179 305.5736 0001545 109.7767 250.3392 15.08836731102955,6917.89,95.438,540.824,538.687,0.0
51736.0,STARLINK-3447,PAYLOAD,2024-01-01 03:05:48,15.08847058,0.0001517,53.2183,304.0874,110.7862,249.3293,1.8389e-05,5e-08,0.0,0 STARLINK-3447,1 51736U 22016Y   24001.12903018  .00000005  00000-0  18389-4 0  9992,2 51736  53.2183 304.0874 0001517 110.7862 249.3293 15.08847058103003,6917.859,95.437,540.773,538.674,0.0
51736.0,STARLINK-3447,PAYLOAD,2024-01-02 01:21:12,15.08842336,0.000143,53.2182,299.9254,104.8275,255.2875,9.9454e-05,1.295e-05,0.0,0 STARLINK-3447,1 51736U 22016Y   24002.05639321  .00001295  00000-0  99454-4 0  9992,2 51736  53.2182 299.9254 0001430 104.8275 255.2875 15.08842336104278,6917.873,95.437,540.728,538.749,0.0
51736.0,STARLINK-3447,PAYLOAD,2024-01-03 02:47:22,15.0884564,0.0001419,53.218,295.1681,94.6257,265.4897,0.00010069,1.315e-05,0.0,0 STARLINK-3447,1 51736U 22016Y   24003.11623143  .00001315  00000-0  10069-3 0  9992,2 51736  53.2180 295.1681 0001419  94.6257 265.4897 15.08845640104437,6917.863,95.437,540.71,538.747,0.0
51736.0,STARLINK-3447,PAYLOAD,2024-01-03 04:22:45,15.08845977,0.0001429,53.218,294.8707,95.9934,264.1221,0.00010094,1.319e-05,0.0,0 STARLINK-3447,1 51736U 22016Y   24003.18247088  .00001319  00000-0  10094-3 0  9991,2 51736  53.2180 294.8707 0001429  95.9934 264.1221 15.08845977103315,6917.862,95.437,540.716,538.739,0.0
51736.0,STARLINK-3447,PAYLOAD,2024-01-04 04:13:32,15.08846115,0.0001531,53.2179,290.4037,96.827,263.2897,0.00010081,1.317e-05,0.0,0 STARLINK-3447,1 51736U 22016Y   24004.17606999  .00001317  00000-0  10081-3 0  9995,2 51736  53.2179 290.4037 0001531  96.8270 263.2897 15.08846115104593,6917.862,95.437,540.786,538.668,0.0
51736.0,STARLINK-3447,PAYLOAD,2024-01-05 00:53:33,15.08841621,0.0001735,53.2187,286.5342,74.0121,286.1062,2.4867e-05,1.08e-06,0.0,0 STARLINK-3447,1 51736U 22016Y   24005.03719582  .00000108  00000-0  24867-4 0  9999,2 51736  53.2187 286.5342 0001735  74.0121 286.1062 15.08841621104726,6917.875,95.437,540.941,538.54,0.0
51736.0,STARLINK-3447,PAYLOAD,2024-01-06 03:55:06,15.08845411,0.0001457,53.2171,281.484,110.7375,249.3773,1.7416e-05,-1.1e-07,0.0,0 STARLINK-3447,1 51736U 22016Y   24006.16327116 -.00000011  00000-0  17416-4 0  9998,2 51736  53.2171 281.4840 0001457 110.7375 249.3773 15.08845411104895,6917.864,95.437,540.737,538.721,0.0
51736.0,STARLINK-3447,PAYLOAD,2024-01-06 21:24:21,15.0883632,0.0001571,53.2176,278.2105,109.6464,250.4697,1.6864e-05,-2e-07,0.0,0 STARLINK-3447,1 51736U 22016Y   24006.89191796 -.00000020  00000-0  16864-4 0  9997,2 51736  53.2176 278.2105 0001571 109.6464 250.4697 15.08836320103875,6917.892,95.438,540.843,538.67,0.0
51736.0,STARLINK-3447,PAYLOAD,2024-01-07 03:45:54,15.08834743,0.0001603,53.2178,277.0242,99.0604,261.057,-3.2622e-07,-2.93e-06,0.0,0 STARLINK-3447,1 51736U 22016Y   24007.15688055 -.00000293  00000-0 -32622-6 0  9991,2 51736  53.2178 277.0242 0001603  99.0604 261.0570 15.08834743105046,6917.896,95.438,540.87,538.653,0.0
51736.0,STARLINK-3447,PAYLOAD,2024-01-07 22:50:31,15.08841174,0.0001602,53.2175,273.4565,103.2537,256.8634,7.7137e-05,9.4e-06,0.0,0 STARLINK-3447,1 51736U 22016Y   24007.95175506  .00000940  00000-0  77137-4 0  9996,2 51736  53.2175 273.4565 0001602 103.2537 256.8634 15.08841174104030,6917.877,95.437,540.85,538.634,0.0
51736.0,STARLINK-3447,PAYLOAD,2024-01-08 03:36:41,15.08841797,0.0001622,53.2177,272.5648,102.5932,257.5242,7.5902e-05,9.2e-06,0.0,0 STARLINK-3447,1 51736U 22016Y   24008.15047478  .00000920  00000-0  75902-4 0  9991,2 51736  53.2177 272.5648 0001622 102.5932 257.5242 15.08841797105199,6917.875,95.437,540.862,538.618,0.0
51736.0,STARLINK-3447,PAYLOAD,2024-01-08 22:41:19,15.0883276,0.0001557,53.2174,268.9966,104.6888,255.4277,3.6981e-05,3.01e-06,0.0,0 STARLINK-3447,1 51736U 22016Y   24008.94536372  .00000301  00000-0  36981-4 0  9991,2 51736  53.2174 268.9966 0001557 104.6888 255.4277 15.08832760104181,6917.903,95.438,540.845,538.69,0.0
51736.0,STARLINK-3447,PAYLOAD,2024-01-09 00:16:42,15.08834993,0.0001655,53.2176,268.6984,112.9265,247.1902,1.4468e-05,-5.8e-07,0.0,0 STARLINK-3447,1 51736U 22016Y   24009.01160278 -.00000058  00000-0  14468-4 0  9994,2 51736  53.2176 268.6984 0001655 112.9265 247.1902 15.08834993105320,6917.896,95.438,540.906,538.616,0.0
51736.0,STARLINK-3447,PAYLOAD,2024-01-09 22:32:06,15.08845269,0.0001313,53.2169,264.5371,95.9111,264.2031,-9.1144e-06,-4.33e-06,0.0,0 STARLINK-3447,1 51736U 22016Y   24009.93896025 -.00000433  00000-0 -91144-5 0  9996,2 51736  53.2169 264.5371 0001313  95.9111 264.2031 15.08845269104339,6917.864,95.437,540.638,538.821,0.0
51736.0,STARLINK-3447,PAYLOAD,2024-01-10 01:42:52,15.08844564,0.0001335,53.2171,263.9426,96.5797,263.5347,5.8443e-05,6.42e-06,0.0,0 STARLINK-3447,1 51736U 22016Y   24010.07143843  .00000642  00000-0  58443-4 0  9990,2 51736  53.2171 263.9426 0001335  96.5797 263.5347 15.08844564105483,6917.866,95.437,540.655,538.808,0.0
51736.0,STARLINK-3447,PAYLOAD,2024-01-11 01:33:39,15.08839072,0.0001281,53.2168,259.4829,93.4235,266.6903,0.00017907,2.563e-05,0.0,0 STARLINK-3447,1 51736U 22016Y   24011.06504049  .00002563  00000-0  17907-3 0  9992,2 51736  53.2168 259.4829 0001281  93.4235 266.6903 15.08839072105636,6917.883,95.438,540.634,538.862,0.0
51736.0,STARLINK-3447,PAYLOAD,2024-01-11 20:38:17,15.0884404,0.0001323,53.2163,255.9171,76.6432,283.4708,6.3271e-05,7.19e-06,0.0,0 STARLINK-3447,1 51736U 22016Y   24011.85992193  .00000719  00000-0  63271-4 0  9997,2 51736  53.2163 255.9171 0001323  76.6432 283.4708 15.08844040104620,6917.868,95.437,540.648,538.818,0.0
